$$SOE
2460147.500000000, A.D. 2023-Jul-22 00:00:00.0000, 1.459153913278612E+08, -2.978546215523509E+08, 2.990678802553065E+07,
2460154.500000000, A.D. 2023-Jul-29 00:00:00.0000, 1.559895301104790E+08, -2.908622671287830E+08, 3.011674651823379E+07,
2460161.500000000, A.D. 2023-Aug-05 00:00:00.0000, 1.658556060985220E+08, -2.834820762081381E+08, 3.028654457574195E+07,
2460168.500000000, A.D. 2023-Aug-12 00:00:00.0000, 1.754972440235628E+08, -2.757183903902349E+08, 3.041536823580422E+07,
2460175.500000000, A.D. 2023-Aug-19 00:00:00.0000, 1.848979467326284E+08, -2.675762900100248E+08, 3.050244496650457E+07,
2460182.500000000, A.D. 2023-Aug-26 00:00:00.0000, 1.940411284557899E+08, -2.590616229425199E+08, 3.054704786080229E+07,
2460189.500000000, A.D. 2023-Sep-02 00:00:00.0000, 2.029101514185697E+08, -2.501810324485505E+08, 3.054849998176339E+07,
2460196.500000000, A.D. 2023-Sep-09 00:00:00.0000, 2.114883659185552E+08, -2.409419837838506E+08, 3.050617883834925E+07,
2460203.500000000, A.D. 2023-Sep-16 00:00:00.0000, 2.197591540841475E+08, -2.313527892782130E+08, 3.041952095259407E+07,
2460210.500000000, A.D. 2023-Sep-23 00:00:00.0000, 2.277059777496819E+08, -2.214226312178146E+08, 3.028802647998262E+07,
2460217.500000000, A.D. 2023-Sep-30 00:00:00.0000, 2.353124300880410E+08, -2.111615809384492E+08, 3.011126398420912E+07,
2460224.500000000, A.D. 2023-Oct-07 00:00:00.0000, 2.425622885811871E+08, -2.005806142503215E+08, 2.988887550500175E+07,
2460231.500000000, A.D. 2023-Oct-14 00:00:00.0000, 2.494395702517508E+08, -1.896916260640177E+08, 2.962058151381513E+07,
2460238.500000000, A.D. 2023-Oct-21 00:00:00.0000, 2.559285922176900E+08, -1.785074421593021E+08, 2.930618554931431E+07,
2460245.500000000, A.D. 2023-Oct-28 00:00:00.0000, 2.620140359250675E+08, -1.670418253814045E+08, 2.894557880258537E+07,
2460252.500000000, A.D. 2023-Nov-04 00:00:00.0000, 2.676810135261970E+08, -1.553094765856626E+08, 2.853874465482806E+07,
2460259.500000000, A.D. 2023-Nov-11 00:00:00.0000, 2.729151362323221E+08, -1.433260304921650E+08, 2.808576304947983E+07,
2460266.500000000, A.D. 2023-Nov-18 00:00:00.0000, 2.777025844453831E+08, -1.311080460968450E+08, 2.758681461750021E+07,
2460273.500000000, A.D. 2023-Nov-25 00:00:00.0000, 2.820301792602190E+08, -1.186729912293907E+08, 2.704218449275655E+07,
2460280.500000000, A.D. 2023-Dec-02 00:00:00.0000, 2.858854548183053E+08, -1.060392209241383E+08, 2.645226575422125E+07,
2460287.500000000, A.D. 2023-Dec-09 00:00:00.0000, 2.892567309789175E+08, -9.322594937132663E+07, 2.581756242196847E+07,
2460294.500000000, A.D. 2023-Dec-16 00:00:00.0000, 2.921331859197124E+08, -8.025321520613615E+07, 2.513869191926872E+07,
2460301.500000000, A.D. 2023-Dec-23 00:00:00.0000, 2.945049282878444E+08, -6.714183928571583E+07, 2.441638696426429E+07,
2460308.500000000, A.D. 2023-Dec-30 00:00:00.0000, 2.963630668022510E+08, -5.391337382916979E+07, 2.365149704552954E+07,
2460315.500000000, A.D. 2024-Jan-06 00:00:00.0000, 2.976997747426995E+08, -4.059004530970643E+07, 2.284498940057140E+07,
2460322.500000000, A.D. 2024-Jan-13 00:00:00.0000, 2.985083516717712E+08, -2.719469303255970E+07, 2.199794900939587E+07,
2460329.500000000, A.D. 2024-Jan-20 00:00:00.0000, 2.987832827795010E+08, -1.375070054072675E+07, 2.111157770079700E+07,
2460336.500000000, A.D. 2024-Jan-27 00:00:00.0000, 2.985202930037652E+08, -2.819195355625711E+05, 2.018719257847770E+07,
2460343.500000000, A.D. 2024-Feb-03 00:00:00.0000, 2.977163947067583E+08, 1.318741228492816E+07, 1.922622370599778E+07,
2460350.500000000, A.D. 2024-Feb-10 00:00:00.0000, 2.963699284357437E+08, 2.663275861334176E+07, 1.823021098865984E+07,
2460357.500000000, A.D. 2024-Feb-17 00:00:00.0000, 2.944805962178802E+08, 4.002937648156783E+07, 1.720080023881286E+07,
2460364.500000000, A.D. 2024-Feb-24 00:00:00.0000, 2.920494868142069E+08, 5.335241201495647E+07, 1.613973843305554E+07,
2460371.500000000, A.D. 2024-Mar-02 00:00:00.0000, 2.890790924462574E+08, 6.657699910067470E+07, 1.504886817909543E+07,
2460378.500000000, A.D. 2024-Mar-09 00:00:00.0000, 2.855733167289088E+08, 7.967835997320515E+07, 1.393012141003364E+07,
2460385.500000000, A.D. 2024-Mar-16 00:00:00.0000, 2.815374739194848E+08, 9.263190691701463E+07, 1.278551233276619E+07,
2460392.500000000, A.D. 2024-Mar-23 00:00:00.0000, 2.769782792130355E+08, 1.054133451567639E+08, 1.161712978762911E+07,
2460399.500000000, A.D. 2024-Mar-30 00:00:00.0000, 2.719038278163403E+08, 1.179987758633304E+08, 1.042712929360789E+07,
2460406.500000000, A.D. 2024-Apr-06 00:00:00.0000, 2.663235631941258E+08, 1.303647948613168E+08, 9.217724562512666E+06,
2460413.500000000, A.D. 2024-Apr-13 00:00:00.0000, 2.602482383039097E+08, 1.424885868353787E+08, 7.991178310614154E+06,
2460420.500000000, A.D. 2024-Apr-20 00:00:00.0000, 2.536898692555862E+08, 1.543480167221873E+08, 6.749792766145200E+06,
2460427.500000000, A.D. 2024-Apr-27 00:00:00.0000, 2.466616804025337E+08, 1.659217168047242E+08, 5.495900064166248E+06,
2460434.500000000, A.D. 2024-May-04 00:00:00.0000, 2.391780415973399E+08, 1.771891679617097E+08, 4.231852563359238E+06,
2460441.500000000, A.D. 2024-May-11 00:00:00.0000, 2.312543985965999E+08, 1.881307742171094E+08, 2.960013153724805E+06,
2460448.500000000, A.D. 2024-May-18 00:00:00.0000, 2.229071975209820E+08, 1.987279299608241E+08, 1.682745645838320E+06,
2460455.500000000, A.D. 2024-May-25 00:00:00.0000, 2.141538042743632E+08, 2.089630793019474E+08, 4.024053321702331E+05,
2460462.500000000, A.D. 2024-Jun-01 00:00:00.0000, 2.050124199018357E+08, 2.188197671042692E+08, -8.786701989259571E+05,
2460469.500000000, A.D. 2024-Jun-08 00:00:00.0000, 1.955019930903480E+08, 2.282826814364085E+08, -2.158169934335515E+06,
2460476.500000000, A.D. 2024-Jun-15 00:00:00.0000, 1.856421311982832E+08, 2.373376878728659E+08, -3.433817906629205E+06,
2460483.500000000, A.D. 2024-Jun-22 00:00:00.0000, 1.754530097912435E+08, 2.459718568193344E+08, -4.703381010171413E+06,
2460490.500000000, A.D. 2024-Jun-29 00:00:00.0000, 1.649552794957445E+08, 2.541734821485328E+08, -5.964676061305195E+06,
2460497.500000000, A.D. 2024-Jul-06 00:00:00.0000, 1.541699737095976E+08, 2.619320889123967E+08, -7.215576502125978E+06,
2460504.500000000, A.D. 2024-Jul-13 00:00:00.0000, 1.431184199602343E+08, 2.692384332790889E+08, -8.454018664210215E+06,
2460511.500000000, A.D. 2024-Jul-20 00:00:00.0000, 1.318221536800772E+08, 2.760844962455865E+08, -9.678007293419972E+06,
2460518.500000000, A.D. 2024-Jul-27 00:00:00.0000, 1.203028344173312E+08, 2.824634706504443E+08, -1.088562034013993E+07,
2460525.500000000, A.D. 2024-Aug-03 00:00:00.0000, 1.085821653484739E+08, 2.883697416582031E+08, -1.207501306669475E+07,
2460532.500000000, A.D. 2024-Aug-10 00:00:00.0000, 9.668181676398291E+07, 2.937988613018145E+08, -1.324442149284047E+07,
2460539.500000000, A.D. 2024-Aug-17 00:00:00.0000, 8.462335399022986E+07, 2.987475177256400E+08, -1.439216519549054E+07,
2460546.500000000, A.D. 2024-Aug-24 00:00:00.0000, 7.242817010125399E+07, 3.032134997442388E+08, -1.551664948790604E+07,
2460553.500000000, A.D. 2024-Aug-31 00:00:00.0000, 6.011742377460255E+07, 3.071956572973152E+08, -1.661636702102344E+07,
2460560.500000000, A.D. 2024-Sep-07 00:00:00.0000, 4.771198281198999E+07, 3.106938585634108E+08, -1.768989886238462E+07,
2460567.500000000, A.D. 2024-Sep-14 00:00:00.0000, 3.523237348944206E+07, 3.137089453515331E+08, -1.873591501624218E+07,
2460574.500000000, A.D. 2024-Sep-21 00:00:00.0000, 2.269873372297142E+07, 3.162426877778712E+08, -1.975317420581098E+07,
2460581.500000000, A.D. 2024-Sep-28 00:00:00.0000, 1.013076950751791E+07, 3.182977355479298E+08, -2.074052317632638E+07,
2460588.500000000, A.D. 2024-Oct-05 00:00:00.0000, -2.452281821260705E+06, 3.198775663736247E+08, -2.169689589691918E+07,
2460595.500000000, A.D. 2024-Oct-12 00:00:00.0000, -1.503168201577099E+07, 3.209864350022675E+08, -2.262131243051037E+07,
2460602.500000000, A.D. 2024-Oct-19 00:00:00.0000, -2.758921797799432E+07, 3.216293230241207E+08, -2.351287737659673E+07,
2460609.500000000, A.D. 2024-Oct-26 00:00:00.0000, -4.010722371497107E+07, 3.218118890489658E+08, -2.437077799084108E+07,
2460616.500000000, A.D. 2024-Nov-02 00:00:00.0000, -5.256859818441303E+07, 3.215404194532171E+08, -2.519428205768061E+07,
2460623.500000000, A.D. 2024-Nov-09 00:00:00.0000, -6.495681920449753E+07, 3.208217800240798E+08, -2.598273556200480E+07,
2460630.500000000, A.D. 2024-Nov-16 00:00:00.0000, -7.725595368420318E+07, 3.196633687630684E+08, -2.673556019900529E+07,
2460637.500000000, A.D. 2024-Nov-23 00:00:00.0000, -8.945066441595265E+07, 3.180730700190920E+08, -2.745225076490745E+07,
2460644.500000000, A.D. 2024-Nov-30 00:00:00.0000, -1.015262135128585E+08, 3.160592100889019E+08, -2.813237248288621E+07,
2460651.500000000, A.D. 2024-Dec-07 00:00:00.0000, -1.134684623602629E+08, 3.136305148495433E+08, -2.877555829738469E+07,
2460658.500000000, A.D. 2024-Dec-14 00:00:00.0000, -1.252638690549101E+08, 3.107960707601750E+08, -2.938150600091620E+07,
2460665.500000000, A.D. 2024-Dec-21 00:00:00.0000, -1.368994859219655E+08, 3.075652880777106E+08, -2.994997510740905E+07,
2460672.500000000, A.D. 2024-Dec-28 00:00:00.0000, -1.483629553929725E+08, 3.039478633651527E+08, -3.048078391504930E+07,
2460679.500000000, A.D. 2025-Jan-04 00:00:00.0000, -1.596425019016533E+08, 2.999537436904707E+08, -3.097380681958167E+07,
2460686.500000000, A.D. 2025-Jan-11 00:00:00.0000, -1.707269218580425E+08, 2.955930941901878E+08, -3.142897159360193E+07,
2460693.500000000, A.D. 2025-Jan-18 00:00:00.0000, -1.816055728333417E+08, 2.908762680687044E+08, -3.184625663695160E+07,
2460700.500000000, A.D. 2025-Jan-25 00:00:00.0000, -1.922683619137356E+08, 2.858137785262445E+08, -3.222568826968016E+07,
2460707.500000000, A.D. 2025-Feb-01 00:00:00.0000, -2.027057332229286E+08, 2.804162725396364E+08, -3.256733809615785E+07,
2460714.500000000, A.D. 2025-Feb-08 00:00:00.0000, -2.129086547301601E+08, 2.746945064605770E+08, -3.287132045172308E+07,
$$EOE